HAWK-A                  
1 43765U 18099H   26068.67628545  .00008617  00000+0  36104-3 0  9995
2 43765  97.4051 122.2425 0034260 275.5523  84.1807 15.23231043397949
STARLINK-33706          
1 63461U 25070B   26068.56574788  .00033867  00000+0  12348-2 0  9992
2 63461  42.9990 260.8327 0001980 301.9874  58.0785 15.27573082 52957
